[{"OBJECT_NAME":"STARLINK-31471","OBJECT_ID":"2024-076E","EPOCH":"2026-03-09T03:53:44.273472","MEAN_MOTION":15.27566798,"ECCENTRICITY":0.00010168,"INCLINATION":43.0065,"RA_OF_ASC_NODE":11.8378,"ARG_OF_PERICENTER":285.9523,"MEAN_ANOMALY":74.1216,"EPHEMERIS_TYPE":0,"CLASSIFICATION_TYPE":"U","NORAD_CAT_ID":59568,"ELEMENT_SET_NO":999,"REV_AT_EPOCH":10633,"BSTAR":-5.4536425e-5,"MEAN_MOTION_DOT":-1.762e-5,"MEAN_MOTION_DDOT":0},{"OBJECT_NAME":"OBJECT BC","OBJECT_ID":"2025-313BC","EPOCH":"2026-03-09T04:33:08.504064","MEAN_MOTION":15.29126358,"ECCENTRICITY":0.00084789,"INCLINATION":97.3985,"RA_OF_ASC_NODE":144.811,"ARG_OF_PERICENTER":328.9209,"MEAN_ANOMALY":31.1528,"EPHEMERIS_TYPE":0,"CLASSIFICATION_TYPE":"U","NORAD_CAT_ID":67298,"ELEMENT_SET_NO":999,"REV_AT_EPOCH":789,"BSTAR":0.0026410397,"MEAN_MOTION_DOT":0.00075331,"MEAN_MOTION_DDOT":0}]
